[{"OBJECT_NAME":"PANDORA","OBJECT_ID":"2026-004AJ","EPOCH":"2026-03-09T23:33:39.015648","MEAN_MOTION":14.87872688,"ECCENTRICITY":0.0006827,"INCLINATION":97.8034,"RA_OF_ASC_NODE":69.2013,"ARG_OF_PERICENTER":94.0251,"MEAN_ANOMALY":266.1746,"EPHEMERIS_TYPE":0,"CLASSIFICATION_TYPE":"U","NORAD_CAT_ID":67395,"ELEMENT_SET_NO":999,"REV_AT_EPOCH":852,"BSTAR":0.00015125074,"MEAN_MOTION_DOT":1.33e-5,"MEAN_MOTION_DDOT":0},{"OBJECT_NAME":"SL-14 R\/B","OBJECT_ID":"1987-088B","EPOCH":"2026-03-09T23:26:32.466624","MEAN_MOTION":14.85330836,"ECCENTRICITY":0.00190822,"INCLINATION":82.5078,"RA_OF_ASC_NODE":66.924,"ARG_OF_PERICENTER":14.7989,"MEAN_ANOMALY":345.3781,"EPHEMERIS_TYPE":0,"CLASSIFICATION_TYPE":"U","NORAD_CAT_ID":18422,"ELEMENT_SET_NO":999,"REV_AT_EPOCH":5334,"BSTAR":7.4571739e-5,"MEAN_MOTION_DOT":6.67e-6,"MEAN_MOTION_DDOT":0}]
